OBJECT_NAME,OBJECT_ID,EPOCH,MEAN_MOTION,ECCENTRICITY,INCLINATION,RA_OF_ASC_NODE,ARG_OF_PERICENTER,MEAN_ANOMALY,EPHEMERIS_TYPE,CLASSIFICATION_TYPE,NORAD_CAT_ID,ELEMENT_SET_NO,REV_AT_EPOCH,BSTAR,MEAN_MOTION_DOT,MEAN_MOTION_DDOT
ALOS-2,2014-029A,2026-07-20T14:49:06.373632,14.79473474,.00015872,97.9226,298.3038,90.8051,269.3342,0,U,39766,999,65652,.71144347E-4,.48E-5,0
KAZEOSAT 2,2014-033A,2026-07-20T13:45:07.364160,14.85503997,.00078082,97.5396,39.4186,199.5852,160.5065,0,U,40010,999,65391,.64762866E-4,.509E-5,0
HODOYOSHI-4,2014-033B,2026-07-20T14:03:59.486688,14.88194063,.00231633,97.5464,24.7987,191.3125,168.7575,0,U,40011,999,65377,.52791401E-4,.437E-5,0
DEIMOS-2,2014-033D,2026-07-20T14:37:28.581312,14.93807556,.00014914,97.5782,74.9170,104.6175,255.5211,0,U,40013,999,64271,.12975277E-3,.1322E-4,0
HODOYOSHI-3,2014-033F,2026-07-20T09:28:23.148768,14.85443490,.0031442,97.6453,3.1059,243.9772,115.8205,0,U,40015,999,65255,.68881131E-4,.546E-5,0
SPOT 7,2014-034A,2026-07-20T14:29:37.620096,14.60983787,.00016632,98.0607,263.2319,94.6842,265.4549,0,U,40053,999,64201,.5874695E-4,.243E-5,0
SKYSAT-B,2014-037D,2026-07-20T14:40:46.452000,14.88099518,.00059586,98.3858,162.4878,156.0742,204.0750,0,U,40072,999,65093,.7609451E-4,.639E-5,0
WORLDVIEW-3 (WV-3),2014-048A,2026-07-20T14:05:53.832768,14.85068964,.00016955,97.8552,275.9576,148.1200,212.0118,0,U,40115,999,64686,.54594183E-4,.413E-5,0
GAOFEN-2,2014-049A,2026-07-20T14:55:36.613056,14.80933973,.00085989,98.0088,265.7947,119.5482,240.6589,0,U,40118,999,64418,.12905468E-3,.945E-5,0
YAOGAN-21,2014-053A,2026-07-20T14:11:48.721632,15.26801659,.00070611,97.1456,240.3999,348.7823,11.3258,0,U,40143,999,66005,.1608229E-3,.4169E-4,0
YAOGAN-22,2014-063A,2026-07-20T10:04:47.032320,13.15531717,.00069024,100.7769,353.2512,114.4075,245.7757,0,U,40275,999,56418,.6411426E-5,-.44E-6,0
ASNARO,2014-070A,2026-07-20T14:38:52.201824,15.19425312,.00045969,97.3435,276.8245,75.5209,284.6536,0,U,40298,999,64908,.22371017E-3,.4673E-4,0
YAOGAN-24,2014-072A,2026-07-20T15:15:32.841792,14.76123390,.00150622,98.1537,339.2600,152.6327,207.5678,0,U,40310,999,62865,.9101951E-4,.576E-5,0
CBERS 4,2014-079A,2026-07-20T15:12:09.883872,14.35517694,.00005912,98.3509,257.4127,67.1964,292.9285,0,U,40336,999,60875,.96624005E-4,.236E-5,0
YAOGAN-26,2014-088A,2026-07-20T14:49:47.642592,15.48583321,.00011261,97.0657,201.0752,301.4780,58.6361,0,U,40362,999,64287,.24668803E-3,.13072E-3,0
SMAP,2015-003A,2026-07-20T14:00:56.367072,14.63391753,.00016317,98.1286,208.2071,93.0160,267.1229,0,U,40376,999,61250,.47669923E-4,.2E-5,0
KOMPSAT-3A,2015-014A,2026-07-20T13:53:47.602752,15.55650444,.00554838,97.6904,195.4269,56.6304,304.0242,0,U,40536,999,62700,.31709908E-3,.23252E-3,0
SENTINEL-2A,2015-028A,2026-07-20T13:42:44.671104,14.30815688,.00013237,98.5670,275.9473,96.4078,263.7256,0,U,40697,999,57850,.57769977E-4,.108E-5,0
GAOFEN-8,2015-030A,2026-07-20T14:28:57.751680,15.47072672,.00097265,97.6901,37.0067,79.0524,281.1819,0,U,40701,999,61661,.2521661E-3,.1269E-3,0
CARBONITE 1 (CBNT-1),2015-032D,2026-07-20T13:36:32.198112,14.83674297,.00143562,97.6529,18.2399,179.0702,181.0542,0,U,40718,999,59429,.47828509E-4,.345E-5,0
YAOGAN-27,2015-040A,2026-07-20T15:06:49.877280,13.16072183,.00087015,100.1180,186.5640,133.1726,227.0116,0,U,40878,999,52206,.73397139E-3,.236E-5,0
GAOFEN-9 01,2015-047A,2026-07-20T14:21:29.642400,14.82941024,.00280822,97.6263,235.7733,33.3992,326.8987,0,U,40894,999,58514,.67239996E-4,.498E-5,0
YAOGAN-28,2015-064A,2026-07-20T15:56:01.372992,15.27800859,.00119602,97.3115,339.2604,76.2618,283.9952,0,U,41026,999,59579,.15599203E-3,.417E-4,0
YAOGAN-29,2015-069A,2026-07-20T13:46:52.532832,14.83110125,.00002073,98.0018,230.2581,14.4980,345.6240,0,U,41038,999,57557,.88598292E-4,.668E-5,0
KENT RIDGE 1,2015-077B,2026-07-19T20:07:56.265024,15.23298386,.00082697,14.9808,23.1228,340.3146,19.6856,0,U,41167,999,58608,.63188931E-4,.2305E-4,0
GAOFEN-4,2015-083A,2026-07-20T06:47:15.871776,1.00270897,.00041678,0.4407,83.8785,121.8602,299.8332,0,U,41194,999,3886,0,-.337E-5,0
JASON-3,2016-002A,2026-07-20T15:12:42.012576,12.87628846,.00081327,66.0416,55.5175,270.4077,89.6010,0,U,41240,999,49155,-.17579982E-4,-.67E-6,0
SENTINEL-3A,2016-011A,2026-07-20T14:21:38.640096,14.26740696,.0001313,98.6233,268.4993,89.0388,271.0943,0,U,41335,999,54282,.29541744E-4,.28E-6,0
ZIYUAN 3-02 (ZY 3-02),2016-033A,2026-07-20T14:27:50.948928,15.21465264,.00146649,97.3819,276.7347,166.4432,193.7200,0,U,41556,999,56306,.13699507E-3,.3018E-4,0
CARTOSAT-2C,2016-040A,2026-07-20T14:02:57.291648,15.19287115,.00089984,97.4458,261.1008,28.3388,331.8334,0,U,41599,999,55878,.13461047E-3,.2774E-4,0
