ALOS-2                  
1 39766U 14029A   26201.61743488  .00000480  00000+0  71144-4 0  9991
2 39766  97.9226 298.3038 0001587  90.8051 269.3342 14.79473474656528
KAZEOSAT 2              
1 40010U 14033A   26201.57300190  .00000509  00000+0  64763-4 0  9995
2 40010  97.5396  39.4186 0007808 199.5852 160.5065 14.85503997653917
HODOYOSHI-4             
1 40011U 14033B   26201.58610517  .00000437  00000+0  52791-4 0  9992
2 40011  97.5464  24.7987 0023163 191.3125 168.7575 14.88194063653778
DEIMOS-2                
1 40013U 14033D   26201.60935858  .00001322  00000+0  12975-3 0  9998
2 40013  97.5782  74.9170 0001491 104.6175 255.5211 14.93807556642714
HODOYOSHI-3             
1 40015U 14033F   26201.39471237  .00000546  00000+0  68881-4 0  9997
2 40015  97.6453   3.1059 0031442 243.9772 115.8205 14.85443490652559
SPOT 7                  
1 40053U 14034A   26201.60390764  .00000243  00000+0  58747-4 0  9993
2 40053  98.0607 263.2319 0001663  94.6842 265.4549 14.60983787642010
SKYSAT-B                
1 40072U 14037D   26201.61164875  .00000639  00000+0  76095-4 0  9995
2 40072  98.3858 162.4878 0005958 156.0742 204.0750 14.88099518650938
WORLDVIEW-3 (WV-3)      
1 40115U 14048A   26201.58742862  .00000413  00000+0  54594-4 0  9999
2 40115  97.8552 275.9576 0001695 148.1200 212.0118 14.85068964646863
GAOFEN-2                
1 40118U 14049A   26201.62195154  .00000945  00000+0  12905-3 0  9993
2 40118  98.0088 265.7947 0008598 119.5482 240.6589 14.80933973644183
YAOGAN-21               
1 40143U 14053A   26201.59153613  .00004169  00000+0  16082-3 0  9998
2 40143  97.1456 240.3999 0007061 348.7823  11.3258 15.26801659660051
YAOGAN-22               
1 40275U 14063A   26201.41998880 -.00000044  00000+0  64114-5 0  9999
2 40275 100.7769 353.2512 0006902 114.4075 245.7757 13.15531717564185
ASNARO                  
1 40298U 14070A   26201.61032641  .00004673  00000+0  22371-3 0  9996
2 40298  97.3435 276.8245 0004596  75.5209 284.6536 15.19425312649086
YAOGAN-24               
1 40310U 14072A   26201.63579678  .00000576  00000+0  91020-4 0  9997
2 40310  98.1537 339.2600 0015062 152.6327 207.5678 14.76123390628654
CBERS 4                 
1 40336U 14079A   26201.63344773  .00000236  00000+0  96624-4 0  9996
2 40336  98.3509 257.4127 0000591  67.1964 292.9285 14.35517694608756
YAOGAN-26               
1 40362U 14088A   26201.61791253  .00013072  00000+0  24669-3 0  9993
2 40362  97.0657 201.0752 0001126 301.4780  58.6361 15.48583321642877
SMAP                    
1 40376U 15003A   26201.58398573  .00000200  00000+0  47670-4 0  9997
2 40376  98.1286 208.2071 0001631  93.0160 267.1229 14.63391753612501
KOMPSAT-3A              
1 40536U 15014A   26201.57902318  .00023252  00000+0  31710-3 0  9993
2 40536  97.6904 195.4269 0055483  56.6304 304.0242 15.55650444627009
SENTINEL-2A             
1 40697U 15028A   26201.57135036  .00000108  00000+0  57770-4 0  9991
2 40697  98.5670 275.9473 0001323  96.4078 263.7256 14.30815688578503
GAOFEN-8                
1 40701U 15030A   26201.60344620  .00012690  00000+0  25217-3 0  9994
2 40701  97.6901  37.0067 0009726  79.0524 281.1819 15.47072672616611
CARBONITE 1 (CBNT-1)    
1 40718U 15032D   26201.56703933  .00000345  00000+0  47829-4 0  9993
2 40718  97.6529  18.2399 0014356 179.0702 181.0542 14.83674297594298
YAOGAN-27               
1 40878U 15040A   26201.62974395  .00000236  00000+0  73397-3 0  9995
2 40878 100.1180 186.5640 0008701 133.1726 227.0116 13.16072183522065
GAOFEN-9 01             
1 40894U 15047A   26201.59825975  .00000498  00000+0  67240-4 0  9996
2 40894  97.6263 235.7733 0028082  33.3992 326.8987 14.82941024585140
YAOGAN-28               
1 41026U 15064A   26201.66390478  .00004170  00000+0  15599-3 0  9996
2 41026  97.3115 339.2604 0011960  76.2618 283.9952 15.27800859595793
YAOGAN-29               
1 41038U 15069A   26201.57421913  .00000668  00000+0  88598-4 0  9991
2 41038  98.0018 230.2581 0000207  14.4980 345.6240 14.83110125575579
KENT RIDGE 1            
1 41167U 15077B   26200.83884566  .00002305  00000+0  63189-4 0  9997
2 41167  14.9808  23.1228 0008269 340.3146  19.6856 15.23298386586084
GAOFEN-4                
1 41194U 15083A   26201.28282259 -.00000337  00000+0  00000+0 0  9997
2 41194   0.4407  83.8785 0004167 121.8602 299.8332  1.00270897 38868
JASON-3                 
1 41240U 16002A   26201.63381959 -.00000067  00000+0 -17580-4 0  9994
2 41240  66.0416  55.5175 0008132 270.4077  89.6010 12.87628846491555
SENTINEL-3A             
1 41335U 16011A   26201.59836389  .00000028  00000+0  29542-4 0  9992
2 41335  98.6233 268.4993 0001313  89.0388 271.0943 14.26740696542826
ZIYUAN 3-02 (ZY 3-02)   
1 41556U 16033A   26201.60267302  .00003018  00000+0  13700-3 0  9996
2 41556  97.3819 276.7347 0014664 166.4432 193.7200 15.21465264563061
CARTOSAT-2C             
1 41599U 16040A   26201.58538532  .00002774  00000+0  13461-3 0  9996
2 41599  97.4458 261.1008 0008998  28.3388 331.8334 15.19287115558789
